STEP CUBELAB-II
1 52897U 22065D   26057.21741368  .00000996  00000-0  20321-3 0  9993
2 52897  98.2026 201.5836 0008934  20.6309 339.5252 14.63086123195276
RANDEV
1 52898U 22065E   26057.17912420  .00001095  00000-0  22061-3 0  9992
2 52898  98.2013 201.8478 0008248  21.9759 338.1795 14.63460261195017
SNUGLITE-II
1 52899U 22065F   26057.12195553  .00001099  00000-0  21833-3 0  9998
2 52899  98.2008 202.2743 0007672  21.5785 338.5739 14.64091180194749
MIMAN
1 52900U 22065G   26056.33673695  .00000688  00000-0  14756-3 0  9990
2 52900  98.2060 199.5049 0007947  24.8241 335.3341 14.61686365194101
GREENCUBE (IO-117)
1 53106U 22080B   25051.21822557 -.00000003  00000-0  00000 0 0  9995
2 53106  70.1434 106.3440 0008542  48.0089 312.1297  6.42557744 61200
ROBUSTA 1F (MTCUBE-2)
1 53109U 22080E   26056.12606939 -.00000003  00000-0  00000-0 0  9999
2 53109  70.1634 337.2204 0009070 314.4981  45.4937  6.42583079 84860
BLUEWALKER-3
1 53807U 22111AL  26056.12131970  .00006683  00000-0  19271-3 0  9999
2 53807  53.2290 199.5658 0006241 177.6126 182.4910 15.36940709192968
ELEKTRO-L4
1 55506U 23016A   26056.10885366 -.00000064  00000-0  00000-0 0  9990
2 55506   0.0817  93.7181 0001861 190.9716  75.2633  1.00271072 11218
SHARJAHSAT-1
1 55104U 23001CZ  26057.11579061  .00019496  00000-0  41835-3 0  9994
2 55104  97.3319 124.6174 0007395 139.9515 220.2280 15.44728813175328
METEOR M2-3
1 57166U 23091A   26057.22423824 -.00000007  00000-0  15958-4 0  9997
2 57166  98.6240 114.4001 0004906 125.3784 234.7854 14.24036248138724
RESHUCUBE-2 (RS37S)
1 57168U 23091C   26057.18181588  .00010713  00000-0  43877-3 0  9996
2 57168  97.5178 119.0884 0013078 133.7079 226.5244 15.24401228147338
RASSVET 1-1
1 57169U 23091D   26057.16956336  .00008430  00000-0  36873-3 0  9997
2 57169  97.5264 118.5546 0011977 127.5434 232.6892 15.22256023147264
RASSVET 1-2
1 57170U 23091E   26057.16969381  .00008169  00000-0  35757-3 0  9992
2 57170  97.5269 118.6242 0010954 119.9339 240.2986 15.22255469147260
RASSVET 1-3
1 57171U 23091F   26057.16939431  .00008492  00000-0  37133-3 0  9995
2 57171  97.5265 118.5802 0012653 137.0045 223.2182 15.22257643147266
UMKA-1 (RS40S)
1 57172U 23091G   26057.11364837  .00006858  00000-0  32643-3 0  9998
2 57172  97.5209 116.2675 0014189 142.6870 217.5353 15.19394751147132
SATURN (RS43S)
1 57174U 23091J   26057.18566296  .00003580  00000-0  20565-3 0  9999
2 57174  97.5221 111.8432 0013954 165.0009 195.1638 15.13076091146844
CUBEBEL-2 (EU11S)
1 57175U 23091K   26057.16951376  .00012276  00000-0  47439-3 0  9996
2 57175  97.5204 119.5475 0011545 142.4315 217.7732 15.26329521147357
SITRO-AIS-5 (ANOKHIN)
1 57176U 23091L   26057.21142253  .00011866  00000-0  45336-3 0  9997
2 57176  97.5210 120.2016 0013289 131.3418 228.8966 15.26695508147390
ZORKIY-2M
1 57177U 23091M   26057.16562029  .00007846  00000-0  37394-3 0  9997
2 57177  97.5250 116.5284 0014895 139.8960 220.3377 15.19292201147139
CUBESX-HSE-3 (RS42S)
1 57178U 23091N   26057.17194800  .00014160  00000-0  51642-3 0  9996
2 57178  97.5237 121.5278 0012787 123.5034 236.7429 15.28195336147459
PHI-DEMO
1 57181U 23091R   26057.20174627  .00003435  00000-0  19400-3 0  9998
2 57181  97.5230 112.5988 0016230 156.1286 204.0701 15.13685022146890
MONITOR-3 (RS58S)
1 57180U 23091Q   26057.16859045  .00011357  00000-0  45119-3 0  9994
2 57180  97.5232 119.9194 0013658 128.3551 231.8916 15.25401908147358
NORBY-2
1 57179U 23091P   26057.20056940  .00004122  00000-0  22048-3 0  9998
2 57179  97.5256 114.2756 0016170 145.5260 214.7024 15.15511183146977
MONITOR-4 (RS57S)
1 57182U 23091S   26057.21995324  .00010285  00000-0  40791-3 0  9993
2 57182  97.5228 119.9353 0013599 128.4577 231.7884 15.25486225147364
MONITOR-2 (RS39S)
1 57184U 23091U   26057.20212108  .00005079  00000-0  25449-3 0  9994
2 57184  97.5233 116.2099 0012664 134.2105 226.0171 15.17749348147111
SVYATOBOR-1 (RS60S)
1 57187U 23091X   26057.21484421  .00009266  00000-0  37883-3 0  9994
2 57187  97.5238 120.5089 0011178 120.2031 240.0315 15.24523274147390
VIZARD-METEO (RS38S)
1 57189U 23091Z   26057.20607163  .00017706  00000-0  56974-3 0  9995
2 57189  97.5225 124.7096 0009133 107.2248 252.9994 15.32254432147677
NANOZOND-1 (RS49S)
1 57190U 23091AA  26057.16082728  .00154642  00000-0  12751-2 0  9991
2 57190  97.5107 136.5234 0001324 113.1378 247.0024 15.69870584148466
SITRO-AIS-6 (CHIRKIN)
1 57192U 23091AC  26057.22591661  .00005874  00000-0  24346-3 0  9997
2 57192  97.5214 119.8565 0013927 131.0570 229.1873 15.24197676147370
SITRO-AIS-8 (SHCHUKIN)
1 57193U 23091AD  26057.21041610  .00014775  00000-0  52691-3 0  9995
2 57193  97.5203 121.3787 0012494 128.9083 231.3273 15.28925998147475
SITRO-AIS-7 (SHEFFER)
1 57194U 23091AE  26057.20863992  .00005903  00000-0  24634-3 0  9999
2 57194  97.5214 119.7147 0013689 132.0488 228.1916 15.23967577147361
AVION KALUGA 650 (RS24S)
1 57195U 23091AF  26057.21714933  .00005936  00000-0  28622-3 0  9998
2 57195  97.5247 117.2654 0011893 132.6715 227.5523 15.19028379147177
SITRO-AIS-10 (KATYS)
1 57199U 23091AK  26057.21019815  .00019495  00000-0  59034-3 0  9995
2 57199  97.5216 125.3994 0008593 109.7591 250.4579 15.34176367147729
SITRO-AIS-9 (BURDAEV)
1 57201U 23091AM  26057.20567719  .00019889  00000-0  60903-3 0  9993
2 57201  97.5214 125.2008 0008755 109.8893 250.3294 15.33815449147714
UTMN-2 (RS27S)
1 57203U 23091AP  26057.12145900  .00014079  00000-0  50026-3 0  9991
2 57203  97.5228 122.9735 0009949 111.8535 248.3763 15.29083997147554
SITRO-AIS-12 (FARTUSHNY)
1 57204U 23091AQ  26057.21582338  .00019760  00000-0  60046-3 0  9997
2 57204  97.5225 125.6138 0008496 105.0741 255.1442 15.34062082147737
AHMAT-1 (RS41S)
1 57206U 23091AS  26057.18732446  .00050873  00000-0  92456-3 0  9992
2 57206  97.5163 131.3440 0005442  97.4785 262.7084 15.49374688148135
SITRO-AIS-11 (SMIRENNY)
1 57208U 23091AU  26057.19150735  .00019852  00000-0  59705-3 0  9992
2 57208  97.5222 125.7734 0008372 104.9678 255.2491 15.34390515147742
KUZGTU-1 (RS47S)
1 57217U 23091AV  26057.20486089  .00012628  00000-0  47656-3 0  9994
2 57217  97.5212 120.7024 0012895 126.1662 234.0772 15.27094510147422
STRATOSAT-TK1-E (RS52SE)
1 57323U 23091AX  26057.20406266  .00120251  00000-0  12843-2 0  9992
2 57323  97.5137 133.4312 0004297 102.2669 257.9071 15.63516233146141
STRATOSAT-TK1-D (RS52SD)
1 57326U 23091BA  26057.20177589  .00093593  00000-0  11734-2 0  9994
2 57326  97.5127 132.4297 0004704 103.6150 256.5630 15.59428046145927
METEOR M2-4
1 59051U 24039A   26057.18327648  .00000027  00000-0  31580-4 0  9997
2 59051  98.6884  17.9547 0007894 125.4962 234.6953 14.22414990103489
PARS-1
1 59065U 24039Q   26057.20339650  .00012163  00000-0  27671-3 0  9990
2 59065  97.4732  34.9010 0011091 145.0824 215.1153 15.43066993111515
SITRO-AIS-25
1 59066U 24039R   26057.18894119  .00003244  00000-0  25880-3 0  9994
2 59066  95.3938 158.8529 0146907 356.7410   3.2843 14.92516276108165
SITRO-AIS-26
1 59067U 24039S   26057.24295538  .00003354  00000-0  26862-3 0  9995
2 59067  95.3942 158.8091 0147201 357.0494   2.9847 14.92333067108164
SITRO-AIS-27
1 59068U 24039T   26057.24332336  .00003360  00000-0  26687-3 0  9996
2 59068  95.3942 159.0317 0146271 355.9013   4.1001 14.92726106108187
SITRO-AIS-28
1 59071U 24039U   26057.22332696  .00003964  00000-0  31419-3 0  9996
2 59071  95.3943 159.0590 0146116 355.8266   4.1729 14.92759145108188
SONATE-2
1 59112U 24043Q   26056.65772178  .00034266  00000-0  60451-3 0  9993
2 59112  97.5379 201.0194 0007879 250.2381 109.8021 15.50289846110561
HORS-1
1 57188U 23091Y   26057.20670557  .00009319  00000-0  38026-3 0  9990
2 57188  97.5217 120.2797 0010706 120.2320 239.9978 15.24592308147394
HORS-2
1 57196U 23091AG  26057.21072753  .00013223  00000-0  47310-3 0  9999
2 57196  97.5230 122.9033 0009935 114.8505 245.3768 15.28872152147554
ZORKIY-2M 6
1 59774U 24092B   26057.14165013  .00012104  00000-0  46883-3 0  9990
2 59774  97.6315 183.5259 0009214 207.3541 152.7213 15.26282516 98585
ZORKIY-2M 4
1 59775U 24092C   26057.17109524  .00013130  00000-0  49851-3 0  9997
2 59775  97.6455 185.0751 0009315 210.3546 149.7154 15.26926687 98625
SITRO-AIS-53
1 59776U 24092D   26056.34898461  .00020136  00000-0  64453-3 0  9990
2 59776  97.6402 185.2863 0008161 183.8138 176.3043 15.32406103 98595
SITRO-AIS-54
1 59777U 24092E   26057.14113813  .00019951  00000-0  63956-3 0  9991
2 59777  97.6400 186.0755 0008428 181.6809 178.4405 15.32357520 98717
SITRO-AIS-56
1 59778U 24092F   26056.90478116  .00020150  00000-0  63430-3 0  9995
2 59778  97.6397 186.0442 0008499 183.0314 177.0877 15.32938486 98692
RASSVET 1-4
1 59779U 24092G   26057.18412875  .00000185  00000-0  85863-4 0  9998
2 59779  98.6539 176.4384 0012228 170.0530 190.0897 14.31793099 93016
RASSVET 1-5
1 59780U 24092H   26057.18405483  .00000192  00000-0  88288-4 0  9999
2 59780  98.6538 176.4320 0012576 171.5146 188.6252 14.31792944 93018
RASSVET 1-6
1 59781U 24092J   26057.25256708  .00000197  00000-0  90136-4 0  9992
2 59781  98.6545 176.5053 0012469 171.5121 188.6275 14.31793964 93024
SITRO-AIS-55
1 59809U 24092K   26056.33356658  .00019966  00000-0  64379-3 0  9999
2 59809  97.6396 185.0944 0008496 184.6719 175.4444 15.32170306 98089
MESAT-1
1 60209U 24125G   26057.16647108  .00038237  00000-0  62396-3 0  9996
2 60209  97.2477 272.8971 0011201 268.7095  91.2875 15.52425126 92289
ISTSAT-1
1 60238U 24128D   26057.06434227  .00008358  00000-0  51042-3 0  9993
2 60238  61.9870 238.5886 0050479 109.9914 250.6627 15.09941539 89674
IONOSFERA-M 01
1 61735U 24199A   26057.14834391  .00000023  00000-0  30174-4 0  9994
2 61735  98.7344 291.3926 0002093  92.8050 267.3368 14.22732655111914
IONOSFERA-M 02
1 61736U 24199B   26057.11253648  .00000015  00000-0  26353-4 0  9997
2 61736  98.7343 291.2687 0000415  36.6306 323.4900 14.22734935115039
